NORAD_CAT_ID,OBJECT_NAME,OBJECT_TYPE,EPOCH,MEAN_MOTION,ECCENTRICITY,INCLINATION,RA_OF_ASC_NODE,ARG_OF_PERICENTER,MEAN_ANOMALY,BSTAR,MEAN_MOTION_DOT,MEAN_MOTION_DDOT,TLE_LINE0,TLE_LINE1,TLE_LINE2,SEMIMAJOR_AXIS,PERIOD,APOGEE,PERIGEE,DECAYED
52535.0,STARLINK-3958,PAYLOAD,2022-06-08 14:00:01,15.6045451,0.0001238,53.2172,166.4551,72.14399999999998,124.0118,-0.0093503,-0.00717479,0.0,0 STARLINK-3958,1 52535U 22051C   22159.58334491 -.00717479  00000-0 -93503-2 0  9995,2 52535  53.2172 166.4551 0001238  72.1440 124.0118 15.60454510  1304,6764.48,92.281,387.1830000000001,385.508,0.0
52535.0,STARLINK-3958,PAYLOAD,2022-06-08 22:00:01,15.59941935,0.000125,53.2174,164.8331,65.3432,204.1812,-0.0094712,-0.00712943,0.0,0 STARLINK-3958,1 52535U 22051C   22159.91668981 -.00712943  00000-0 -94712-2 0  9990,2 52535  53.2174 164.8331 0001250  65.3432 204.1812 15.59941935  4622,6765.962,92.311,388.673,386.981,0.0
52535.0,STARLINK-3958,PAYLOAD,2022-06-09 14:00:01,15.58923433,0.0001121,53.2171,161.5984,62.3728,351.8499,-0.0098682,-0.00714252,0.0,0 STARLINK-3958,1 52535U 22051C   22160.58334491 -.00714252  00000-0 -98682-2 0  9996,2 52535  53.2171 161.5984 0001121  62.3728 351.8499 15.58923433  1304,6768.909000000002,92.371,391.532,390.015,0.0
52535.0,STARLINK-3958,PAYLOAD,2022-06-09 22:00:00,15.58413817,0.0001295,53.2172,159.9802,57.9222,67.7651,-0.01009,-0.00716133,0.0,0 STARLINK-3958,1 52535U 22051C   22160.91667824 -.00716133  00000-0 -10090-1 0  9998,2 52535  53.2172 159.9802 0001295  57.9222  67.7651 15.58413817  1309,6770.384,92.402,393.126,391.372,0.0
52535.0,STARLINK-3958,PAYLOAD,2022-06-10 00:00:00,15.58285859,0.0001332,53.2174,159.5764,65.3579,168.09900000000005,-0.010096,-0.00713342,0.0,0 STARLINK-3958,1 52535U 22051C   22161.00001157 -.00713342  00000-0 -10096-1 0  9995,2 52535  53.2174 159.5764 0001332  65.3579 168.0990 15.58285859  4794,6770.755,92.409,393.522,391.718,0.0
52535.0,STARLINK-3958,PAYLOAD,2022-06-10 14:00:01,15.57395135,0.0001206,53.2172,156.7523,74.4375,192.3367,-0.010509,-0.00717513,0.0,0 STARLINK-3958,1 52535U 22051C   22161.58334491 -.00717513  00000-0 -10509-1 0  9991,2 52535  53.2172 156.7523 0001206  74.4375 192.3367 15.57395135  1309,6773.3359999999975,92.462,396.018,394.384,0.0
52535.0,STARLINK-3958,PAYLOAD,2022-06-10 22:00:00,15.56881228,0.0001162,53.2173,155.1379,62.8834,273.5182,-0.010614,-0.0071135,0.0,0 STARLINK-3958,1 52535U 22051C   22161.91667824 -.00711350  00000-0 -10614-1 0  9997,2 52535  53.2173 155.1379 0001162  62.8834 273.5182 15.56881228  4946,6774.8269999999975,92.493,397.479,395.904,0.0
52535.0,STARLINK-3958,PAYLOAD,2022-06-11 22:00:00,15.55353846,0.0001351,53.2174,150.30700000000004,62.9723,118.6265,-0.011295,-0.00714767,0.0,0 STARLINK-3958,1 52535U 22051C   22162.91667824 -.00714767  00000-0 -11295-1 0  9999,2 52535  53.2174 150.3070 0001351  62.9723 118.6265 15.55353846  5097,6779.261,92.583,402.042,400.21,0.0
52535.0,STARLINK-3958,PAYLOAD,2022-06-12 14:00:01,15.54334641,0.0001148,53.2172,147.094,74.3369,240.996,-0.011749,-0.00715869,0.0,0 STARLINK-3958,1 52535U 22051C   22163.58334491 -.00715869  00000-0 -11749-1 0  9992,2 52535  53.2172 147.0940 0001148  74.3369 240.9960 15.54334641  1303,6782.224,92.644,404.86800000000005,403.311,0.0
52535.0,STARLINK-3958,PAYLOAD,2022-06-12 22:00:00,15.53821599,0.0001136,53.2174,145.4873,66.4791,314.8037,-0.011878,-0.00710682,0.0,0 STARLINK-3958,1 52535U 22051C   22163.91667824 -.00710682  00000-0 -11878-1 0  9999,2 52535  53.2174 145.4873 0001136  66.4791 314.8037 15.53821599  5256,6783.717,92.675,406.353,404.812,0.0
52535.0,STARLINK-3958,PAYLOAD,2022-06-13 14:00:01,15.52804037,0.0001232,53.2171,142.2815,70.64699999999998,80.6926,-0.012395,-0.00714245,0.0,0 STARLINK-3958,1 52535U 22051C   22164.58334491 -.00714245  00000-0 -12395-1 0  9998,2 52535  53.2171 142.2815 0001232  70.6470  80.6926 15.52804037  1306,6786.681,92.735,409.382,407.709,0.0
52535.0,STARLINK-3958,PAYLOAD,2022-06-13 22:00:00,15.52293179,0.0001355,53.2173,140.6786,68.361,147.0891,-0.012583,-0.00711979,0.0,0 STARLINK-3958,1 52535U 22051C   22164.91667824 -.00711979  00000-0 -12583-1 0  9994,2 52535  53.2173 140.6786 0001355  68.3610 147.0891 15.52293179  1301,6788.169,92.766,410.954,409.115,0.0
52535.0,STARLINK-3958,PAYLOAD,2022-06-14 14:00:01,15.51274537,0.0001111,53.2173,137.48,71.3412,270.4896,-0.013111,-0.00723938,0.0,0 STARLINK-3958,1 52535U 22051C   22165.58334491 -.00723938  00000-0 -13111-1 0  9995,2 52535  53.2173 137.4800 0001111  71.3412 270.4896 15.51274537  1308,6791.141,92.827,413.76,412.251,0.0
52535.0,STARLINK-3958,PAYLOAD,2022-06-14 22:00:00,15.5076259,0.0001185,53.2175,135.8813,63.9497,340.1536,-0.013285,-0.0072048,0.0,0 STARLINK-3958,1 52535U 22051C   22165.91667824 -.00720480  00000-0 -13285-1 0  9992,2 52535  53.2175 135.8813 0001185  63.9497 340.1536 15.50762590  5565,6792.635,92.858,415.305,413.695,0.0
52535.0,STARLINK-3958,PAYLOAD,2022-06-15 14:00:01,15.4988827,0.0001293,53.2173,132.6925,63.9782,102.854,-9.1599e-05,-5.647e-05,0.0,0 STARLINK-3958,1 52535U 22051C   22166.58334491 -.00005647  00000-0 -91599-4 0  9995,2 52535  53.2173 132.6925 0001293  63.9782 102.8540 15.49888270  5660,6795.19,92.91,417.9330000000001,416.176,0.0
52535.0,STARLINK-3958,PAYLOAD,2022-06-15 22:00:00,15.49912102,8.4e-05,53.2163,131.1085,60.7462,167.0531,0.00048614,0.00027262,0.0,0 STARLINK-3958,1 52535U 22051C   22166.91667824  .00027262  00000-0  48614-3 0  9995,2 52535  53.2163 131.1085 0000840  60.7462 167.0531 15.49912102  5718,6795.12,92.908,417.556,416.414,0.0
52535.0,STARLINK-3958,PAYLOAD,2022-06-16 02:00:01,15.49932302,9.13e-05,53.2166,130.3103,51.7856,26.4905,-0.0001205,-7.295e-05,0.0,0 STARLINK-3958,1 52535U 22051C   22167.08334491 -.00007295  00000-0 -12050-3 0  9996,2 52535  53.2166 130.3103 0000913  51.7856  26.4905 15.49932302  1309,6795.061,92.907,417.546,416.306,0.0
52535.0,STARLINK-3958,PAYLOAD,2022-06-19 14:00:01,15.45410566,0.0001344,53.2174,113.6004,61.678,92.5044,-0.016021,-0.00720055,0.0,0 STARLINK-3958,1 52535U 22051C   22170.58334491 -.00720055  00000-0 -16021-1 0  9991,2 52535  53.2174 113.6004 0001344  61.6780  92.5044 15.45410566  1304,6808.309,93.179,431.089,429.259,0.0
52535.0,STARLINK-3958,PAYLOAD,2022-06-19 20:00:01,15.45027416,0.000137,53.2176,112.4119,56.3285,49.3321,-0.016197,-0.00718557,0.0,0 STARLINK-3958,1 52535U 22051C   22170.83334491 -.00718557  00000-0 -16197-1 0  9997,2 52535  53.2176 112.4119 0001370  56.3285  49.3321 15.45027416  6323,6809.435,93.202,432.232,430.367,0.0
52535.0,STARLINK-3958,PAYLOAD,2022-06-19 22:00:00,15.4489969,0.0001440999999999,53.2177,112.0165,61.6548,147.7551,-0.016261,-0.00718273,0.0,0 STARLINK-3958,1 52535U 22051C   22170.91667824 -.00718273  00000-0 -16261-1 0  9992,2 52535  53.2177 112.0165 0001441  61.6548 147.7551 15.44899690  1302,6809.81,93.21,432.656,430.694,0.0
52535.0,STARLINK-3958,PAYLOAD,2022-06-20 14:00:01,15.43881714,0.00012,53.2174,108.8522,70.8596,247.1661,-0.016934,-0.00722066,0.0,0 STARLINK-3958,1 52535U 22051C   22171.58334491 -.00722066  00000-0 -16934-1 0  9999,2 52535  53.2174 108.8522 0001200  70.8596 247.1661 15.43881714  1301,6812.803000000001,93.271,435.485,433.85,0.0
52535.0,STARLINK-3958,PAYLOAD,2022-06-20 22:00:00,15.43371885,0.0001232,53.2176,107.272,57.9287,313.4855,-0.017223,-0.00721789,0.0,0 STARLINK-3958,1 52535U 22051C   22171.91667824 -.00721789  00000-0 -17223-1 0  9998,2 52535  53.2176 107.2720 0001232  57.9287 313.4855 15.43371885  6494,6814.303000000001,93.302,437.008,435.329,0.0
52535.0,STARLINK-3958,PAYLOAD,2022-06-21 14:00:01,15.42349396,0.0001284,53.2173,104.1149,62.0269,54.3279,-0.017718,-0.00717622,0.0,0 STARLINK-3958,1 52535U 22051C   22172.58334491 -.00717622  00000-0 -17718-1 0  9993,2 52535  53.2173 104.1149 0001284  62.0269  54.3279 15.42349396  1303,6817.314,93.364,440.055,438.304,0.0
52535.0,STARLINK-3958,PAYLOAD,2022-06-21 22:00:00,15.41840013,0.0001406999999999,53.2174,102.5384,63.4626,104.4424,-0.018049,-0.00718547,0.0,0 STARLINK-3958,1 52535U 22051C   22172.91667824 -.00718547  00000-0 -18049-1 0  9994,2 52535  53.2174 102.5384 0001407  63.4626 104.4424 15.41840013  1306,6818.816,93.395,441.64,439.722,0.0
52535.0,STARLINK-3958,PAYLOAD,2022-06-22 00:00:02,15.41711495,0.0001356,53.2173,102.145,68.2609,202.5002,-0.018071,-0.00716481,0.0,0 STARLINK-3958,1 52535U 22051C   22173.00002315 -.00716481  00000-0 -18071-1 0  9993,2 52535  53.2173 102.1450 0001356  68.2609 202.5002 15.41711495  6669,6819.195,93.403,441.985,440.135,0.0
52535.0,STARLINK-3958,PAYLOAD,2022-06-22 14:00:01,15.40819874,0.0001315,53.2175,99.3883,66.5297,202.6385,-0.018661,-0.00717993,0.0,0 STARLINK-3958,1 52535U 22051C   22173.58334491 -.00717993  00000-0 -18661-1 0  9993,2 52535  53.2175  99.3883 0001315  66.5297 202.6385 15.40819874  1307,6821.825,93.457,444.587,442.793,0.0
52535.0,STARLINK-3958,PAYLOAD,2022-06-22 22:00:00,15.40310859,0.0001307,53.2175,97.8158,62.6776,256.2018,-0.019022,-0.00719459,0.0,0 STARLINK-3958,1 52535U 22051C   22173.91667824 -.00719459  00000-0 -19022-1 0  9990,2 52535  53.2175  97.8158 0001307  62.6776 256.2018 15.40310859  6802,6823.328,93.488,446.085,444.301,0.0
52535.0,STARLINK-3958,PAYLOAD,2022-06-23 14:00:01,15.39289294,0.0001222,53.2175,94.6728,56.9125,359.5542,-0.019608,-0.00717112,0.0,0 STARLINK-3958,1 52535U 22051C   22174.58334491 -.00717112  00000-0 -19608-1 0  9999,2 52535  53.2175  94.6728 0001222  56.9125 359.5542 15.39289294  1305,6826.347,93.55,449.046,447.378,0.0
52535.0,STARLINK-3958,PAYLOAD,2022-06-23 22:00:00,15.38781037,0.0001348,53.2175,93.1042,59.2587,45.0806,-0.020018,-0.00719747,0.0,0 STARLINK-3958,1 52535U 22051C   22174.91667824 -.00719747  00000-0 -20018-1 0  9998,2 52535  53.2175  93.1042 0001348  59.2587  45.0806 15.38781037  6952,6827.85,93.581,450.635,448.794,0.0
